IRIDIUM 68 [+]          
1 25291U 98021G   18032.30179259  .00000176  00000-0  55835-4 0  9993
2 25291  86.3988 128.3042 0002087  98.2630 261.8803 14.34222465 37841
IRIDIUM 69 [-]          
1 25319U 98026A   18032.42331850  .00000079  00000-0  19142-4 0  9992
2 25319  86.4032 149.3378 0001279 163.3601 196.7640 14.38713265 35998
IRIDIUM 71 [-]          
1 25320U 98026B   18032.55625462  .00000103  00000-0  26742-4 0  9995
2 25320  86.4013 145.0628 0001260  26.5284 333.5979 14.39131488 36457
IRIDIUM 70 [+]          
1 25342U 98032A   18032.32706343  .00000181  00000-0  57512-4 0  9994
2 25342  86.3992 128.5465 0002108  93.1156 267.0281 14.34219173 31940
IRIDIUM 72 [+]          
1 25343U 98032B   18032.31437856  .00000172  00000-0  54264-4 0  9995
2 25343  86.3986 128.1486 0002119  95.9069 264.2369 14.34219300 31946
IRIDIUM 73 [-]          
1 25344U 98032C   18032.26509365  .00000116  00000-0  25207-4 0  9998
2 25344  86.4427 106.1804 0002513  80.7735 279.3753 14.49092456 40725
IRIDIUM 75 [+]          
1 25346U 98032E   18032.32071867  .00000171  00000-0  54175-4 0  9995
2 25346  86.3990 128.4064 0002094  96.9143 263.2291 14.34215165 32517
IRIDIUM 3 [P]           
1 25431U 98048A   18032.36388965  .01745926 -11342-5  62085-3 0  9991
2 25431  86.3713 158.9816 0185069 315.2424  43.4048 15.96093679 18594
IRIDIUM 76 [+]          
1 25432U 98048B   18032.39402121  .00000120  00000-0  35688-4 0  9998
2 25432  86.4000 159.6924 0002232  93.5057 266.6394 14.34216618 18449
IRIDIUM 82 [-]          
1 25467U 98051A   18032.16251765  .00000614  00000-0  44596-4 0  9997
2 25467  86.4001 276.0340 0179990 295.3191  62.9485 14.89714410 20928
IRIDIUM 81 [+]          
1 25468U 98051B   18032.22192475  .00000172  00000-0  49747-4 0  9999
2 25468  86.4234 286.0787 0002310  86.9405 273.2057 14.38611152 15778
IRIDIUM 80 [+]          
1 25469U 98051C   18032.23952441  .00000161  00000-0  50336-4 0  9992
2 25469  86.3963 286.3289 0001429  94.6292  19.8849 14.34221153 15662
IRIDIUM 2 [-]           
1 25527U 98066A   18032.56801389  .00000907  00000-0  43777-4 0  9992
2 25527  85.5285 256.7767 0008093 341.9159  18.1792 15.17161097 52641
IRIDIUM 86 [+]          
1 25528U 98066B   18032.51198574 -.00000011  00000-0 -10972-4 0  9992
2 25528  86.3935 253.8876 0001392  55.6222 304.5105 14.34220173 12237
IRIDIUM 84 [+]          
1 25530U 98066D   18032.54370339 -.00000001  00000-0 -75737-5 0  9999
2 25530  86.3937 254.0431 0001981  83.3772 276.7650 14.34220446  9878
IRIDIUM 83 [+]          
1 25531U 98066E   18032.22657647 -.00000018  00000-0 -13453-4 0  9999
2 25531  86.3940 254.3106 0001964  85.1975 274.9445 14.34218919  7187
IRIDIUM 20 [+]          
1 25577U 98074A   18032.42569308  .00000114  00000-0  33564-4 0  9996
2 25577  86.3999 159.5977 0002044  95.9357 264.2072 14.34217097  1296
IRIDIUM 11 [+]          
1 25578U 98074B   18032.46220204  .00000025  00000-0  22432-5 0  9994
2 25578  86.3999 159.7924 0003244  97.1483 331.6920 14.24871381 10267
IRIDIUM 14 [+]          
1 25777U 99032A   18032.33974884  .00000170  00000-0  53800-4 0  9999
2 25777  86.3988 128.2262 0002083  94.5493 265.5941 14.34219027987528
IRIDIUM 21 [+]          
1 25778U 99032B   18032.30803809  .00000176  00000-0  55606-4 0  9997
2 25778  86.3987 128.2552 0002289  97.7347 262.4109 14.34219179980951
IRIDIUM 91 [+]          
1 27372U 02005A   18032.48608936  .00000019  00000-0 -25987-6 0  9994
2 27372  86.3985 191.3350 0002191  82.4063 277.7382 14.34217649844496
IRIDIUM 90 [B]          
1 27373U 02005B   18032.51993983  .00000009  00000-0 -32321-5 0  9996
2 27373  86.4450 254.1811 0001991  79.4422 280.7003 14.42949811844426
IRIDIUM 94 [+]          
1 27374U 02005C   18032.39858866  .00000121  00000-0  36075-4 0  9996
2 27374  86.4000 159.9442 0002408  83.5464 333.2349 14.34219971848807
IRIDIUM 95 [+]          
1 27375U 02005D   18032.52423615 -.00000055  00000-0 -26670-4 0  9990
2 27375  86.3982 191.3327 0002768  83.8369 276.3142 14.34212192843782
IRIDIUM 96 [P]          
1 27376U 02005E   18032.55522082  .00022684 -10574-5  25658-3 0  9999
2 27376  86.3801 220.7887 0320000   5.1486 355.2912 15.18929929849335
IRIDIUM 97 [+]          
1 27450U 02031A   18032.49587208 -.00000061  00000-0 -28899-4 0  9990
2 27450  86.3954 223.0388 0001948  82.0677 278.0740 14.34214624823094
IRIDIUM 98 [+]          
1 27451U 02031B   18032.22369960  .00000163  00000-0  50972-4 0  9993
2 27451  86.3956 286.4166 0001683  75.1483 284.9899 14.34221247824134
